{
  "type": "FeatureCollection",
  "features": [
    {
      "type": "Feature",
      "properties": {
        "norad_id": 30539,
        "name": "FENGYUN 1C DEB",
        "group": "fengyun-1c-debris",
        "lat": 57.33344431942358,
        "lon": 171.09399637523597,
        "alt_km": 749.8963863744775,
        "timestamp": "2025-12-21T22:41:41.737009+00:00",
        "meta_object_name": "FENGYUN 1C DEB",
        "meta_object_id": "1999-025AKD",
        "meta_epoch": "2025-12-20T04:52:46.321824",
        "meta_mean_motion": 14.55443921,
        "meta_eccentricity": 0.01152789,
        "meta_inclination": 98.8807,
        "meta_ra_of_asc_node": 335.1278,
        "meta_arg_of_pericenter": 252.91,
        "meta_mean_anomaly": 105.9442,
        "meta_ephemeris_type": 0,
        "meta_classification_type": "U",
        "meta_norad_cat_id": 30539,
        "meta_element_set_no": 999,
        "meta_rev_at_epoch": 99474,
        "meta_bstar": 0.00042080856,
        "meta_mean_motion_dot": 1.942e-05,
        "meta_mean_motion_ddot": 0,
        "tle_line1": "1 30539U 99025AKD 25354.20331391  .00001942  00000+0  42081-3 0  9999",
        "tle_line2": "2 30539  98.8807 335.1278 0115278 252.9100 105.9442 14.55443921994740"
      },
      "geometry": {
        "type": "Point",
        "coordinates": [
          171.09399637523597,
          57.33344431942358
        ]
      }
    },
    {
      "type": "Feature",
      "properties": {
        "norad_id": 30540,
        "name": "FENGYUN 1C DEB",
        "group": "fengyun-1c-debris",
        "lat": -71.99655771646017,
        "lon": 133.25860865874486,
        "alt_km": 802.7454489080674,
        "timestamp": "2025-12-21T22:41:41.737019+00:00",
        "meta_object_name": "FENGYUN 1C DEB",
        "meta_object_id": "1999-025AKE",
        "meta_epoch": "2025-12-21T06:31:41.312352",
        "meta_mean_motion": 14.32352224,
        "meta_eccentricity": 0.0050766,
        "meta_inclination": 98.8791,
        "meta_ra_of_asc_node": 103.8175,
        "meta_arg_of_pericenter": 36.6295,
        "meta_mean_anomaly": 18.1633,
        "meta_ephemeris_type": 0,
        "meta_classification_type": "U",
        "meta_norad_cat_id": 30540,
        "meta_element_set_no": 999,
        "meta_rev_at_epoch": 97408,
        "meta_bstar": 0.0013384,
        "meta_mean_motion_dot": 3.624e-05,
        "meta_mean_motion_ddot": 0,
        "tle_line1": "1 30540U 99025AKE 25355.27200593  .00003624  00000+0  13384-2 0  9990",
        "tle_line2": "2 30540  98.8791 103.8175 0050766  36.6295  18.1633 14.32352224974084"
      },
      "geometry": {
        "type": "Point",
        "coordinates": [
          133.25860865874486,
          -71.99655771646017
        ]
      }
    },
    {
      "type": "Feature",
      "properties": {
        "norad_id": 30541,
        "name": "FENGYUN 1C DEB",
        "group": "fengyun-1c-debris",
        "lat": 12.49738112849177,
        "lon": 40.42806313763501,
        "alt_km": 807.3156521066894,
        "timestamp": "2025-12-21T22:41:41.737029+00:00",
        "meta_object_name": "FENGYUN 1C DEB",
        "meta_object_id": "1999-025AKF",
        "meta_epoch": "2025-12-20T19:38:13.351776",
        "meta_mean_motion": 14.23088463,
        "meta_eccentricity": 0.0017777,
        "meta_inclination": 98.6936,
        "meta_ra_of_asc_node": 41.2585,
        "meta_arg_of_pericenter": 62.8985,
        "meta_mean_anomaly": 297.4004,
        "meta_ephemeris_type": 0,
        "meta_classification_type": "U",
        "meta_norad_cat_id": 30541,
        "meta_element_set_no": 999,
        "meta_rev_at_epoch": 97442,
        "meta_bstar": 0.00080306,
        "meta_mean_motion_dot": 1.771e-05,
        "meta_mean_motion_ddot": 0,
        "tle_line1": "1 30541U 99025AKF 25354.81821009  .00001771  00000+0  80306-3 0  9991",
        "tle_line2": "2 30541  98.6936  41.2585 0017777  62.8985 297.4004 14.23088463974429"
      },
      "geometry": {
        "type": "Point",
        "coordinates": [
          40.42806313763501,
          12.49738112849177
        ]
      }
    },
    {
      "type": "Feature",
      "properties": {
        "norad_id": 30542,
        "name": "FENGYUN 1C DEB",
        "group": "fengyun-1c-debris",
        "lat": 65.91726412166018,
        "lon": 4.188072637615382,
        "alt_km": 873.0350677877477,
        "timestamp": "2025-12-21T22:41:41.737039+00:00",
        "meta_object_name": "FENGYUN 1C DEB",
        "meta_object_id": "1999-025AKG",
        "meta_epoch": "2025-12-21T08:47:45.303648",
        "meta_mean_motion": 14.06978226,
        "meta_eccentricity": 0.00271956,
        "meta_inclination": 98.7861,
        "meta_ra_of_asc_node": 23.8695,
        "meta_arg_of_pericenter": 309.3154,
        "meta_mean_anomaly": 66.2324,
        "meta_ephemeris_type": 0,
        "meta_classification_type": "U",
        "meta_norad_cat_id": 30542,
        "meta_element_set_no": 999,
        "meta_rev_at_epoch": 97040,
        "meta_bstar": 0.00021346185,
        "meta_mean_motion_dot": 3.14e-06,
        "meta_mean_motion_ddot": 0,
        "tle_line1": "1 30542U 99025AKG 25355.36649657  .00000314  00000+0  21346-3 0  9991",
        "tle_line2": "2 30542  98.7861  23.8695 0027195 309.3154  66.2324 14.06978226970405"
      },
      "geometry": {
        "type": "Point",
        "coordinates": [
          4.188072637615382,
          65.91726412166018
        ]
      }
    },
    {
      "type": "Feature",
      "properties": {
        "norad_id": 30543,
        "name": "FENGYUN 1C DEB",
        "group": "fengyun-1c-debris",
        "lat": 35.940614045480224,
        "lon": -1.2216966192635246,
        "alt_km": 832.1035085876429,
        "timestamp": "2025-12-21T22:41:41.737049+00:00",
        "meta_object_name": "FENGYUN 1C DEB",
        "meta_object_id": "1999-025AKH",
        "meta_epoch": "2025-12-20T07:15:14.029344",
        "meta_mean_motion": 14.03748528,
        "meta_eccentricity": 0.00722546,
        "meta_inclination": 98.833,
        "meta_ra_of_asc_node": 3.6543,
        "meta_arg_of_pericenter": 12.6278,
        "meta_mean_anomaly": 3.3053,
        "meta_ephemeris_type": 0,
        "meta_classification_type": "U",
        "meta_norad_cat_id": 30543,
        "meta_element_set_no": 999,
        "meta_rev_at_epoch": 96611,
        "meta_bstar": 0.00016180455,
        "meta_mean_motion_dot": 2.18e-06,
        "meta_mean_motion_ddot": 0,
        "tle_line1": "1 30543U 99025AKH 25354.30224571  .00000218  00000+0  16180-3 0  9992",
        "tle_line2": "2 30543  98.8330   3.6543 0072254  12.6278   3.3053 14.03748528966114"
      },
      "geometry": {
        "type": "Point",
        "coordinates": [
          -1.2216966192635246,
          35.940614045480224
        ]
      }
    },
    {
      "type": "Feature",
      "properties": {
        "norad_id": 30545,
        "name": "FENGYUN 1C DEB",
        "group": "fengyun-1c-debris",
        "lat": 21.784278084820944,
        "lon": 30.50414554596953,
        "alt_km": 1531.7453999917798,
        "timestamp": "2025-12-21T22:41:41.737082+00:00",
        "meta_object_name": "FENGYUN 1C DEB",
        "meta_object_id": "1999-025AKK",
        "meta_epoch": "2025-12-16T01:55:01.765920",
        "meta_mean_motion": 13.20785031,
        "meta_eccentricity": 0.04726799,
        "meta_inclination": 98.9986,
        "meta_ra_of_asc_node": 201.8152,
        "meta_arg_of_pericenter": 2.8282,
        "meta_mean_anomaly": 357.5348,
        "meta_ephemeris_type": 0,
        "meta_classification_type": "U",
        "meta_norad_cat_id": 30545,
        "meta_element_set_no": 999,
        "meta_rev_at_epoch": 90974,
        "meta_bstar": 0.00057440201,
        "meta_mean_motion_dot": 3.84e-06,
        "meta_mean_motion_ddot": 0,
        "tle_line1": "1 30545U 99025AKK 25350.07988155  .00000384  00000+0  57440-3 0  9997",
        "tle_line2": "2 30545  98.9986 201.8152 0472679   2.8282 357.5348 13.20785031909748"
      },
      "geometry": {
        "type": "Point",
        "coordinates": [
          30.50414554596953,
          21.784278084820944
        ]
      }
    },
    {
      "type": "Feature",
      "properties": {
        "norad_id": 30546,
        "name": "FENGYUN 1C DEB",
        "group": "fengyun-1c-debris",
        "lat": 23.980492644895673,
        "lon": -150.91886661430652,
        "alt_km": 626.1827595941977,
        "timestamp": "2025-12-21T22:41:41.737094+00:00",
        "meta_object_name": "FENGYUN 1C DEB",
        "meta_object_id": "1999-025AKL",
        "meta_epoch": "2025-12-21T13:11:22.174080",
        "meta_mean_motion": 14.87272261,
        "meta_eccentricity": 0.00927996,
        "meta_inclination": 98.9076,
        "meta_ra_of_asc_node": 212.6376,
        "meta_arg_of_pericenter": 134.4085,
        "meta_mean_anomaly": 291.6839,
        "meta_ephemeris_type": 0,
        "meta_classification_type": "U",
        "meta_norad_cat_id": 30546,
        "meta_element_set_no": 999,
        "meta_rev_at_epoch": 588,
        "meta_bstar": 0.00056683146,
        "meta_mean_motion_dot": 5.46e-05,
        "meta_mean_motion_ddot": 0,
        "tle_line1": "1 30546U 99025AKL 25355.54956220  .00005460  00000+0  56683-3 0  9991",
        "tle_line2": "2 30546  98.9076 212.6376 0092799 134.4085 291.6839 14.87272261  5886"
      },
      "geometry": {
        "type": "Point",
        "coordinates": [
          -150.91886661430652,
          23.980492644895673
        ]
      }
    }
  ]
}